start=new Date('2022-10-06T00:00:00.000Z').valueOf();
sats=[{"EPOCH":"2022-10-05T14:59:28.730976","ECCENTRICITY":"0.00014420","CLASSIFICATION_TYPE":"U","MEAN_ANOMALY":"292.7723","SEMIMAJOR_AXIS":"6917.904","OBJECT_ID":"2022-017AA","ELEMENT_SET_NO":"999","PERIOD":"95.438","SITE":"AFWTR","OBJECT_TYPE":"PAYLOAD","MEAN_MOTION_DOT":"0.00023977","TIME_SYSTEM":"UTC","FILE":"3593077","TLE_LINE2":"2 51792  53.2157 205.3812 0001442  67.3422 292.7723 15.08832271 35103","MEAN_MOTION_DDOT":"0.0000000000000","INCLINATION":"53.2157","MEAN_MOTION":"15.08832271","MEAN_ELEMENT_THEORY":"SGP4","LAUNCH_DATE":"2022-02-25","REF_FRAME":"TEME","REV_AT_EPOCH":"3510","BSTAR":"0.00151980000000","GP_ID":"214276203","TLE_LINE1":"1 51792U 22017AA  22278.62463809  .00023977  00000-0  15198-2 0  9999","CENTER_NAME":"EARTH","NORAD_CAT_ID":"51792","APOAPSIS":"540.767","OBJECT_NAME":"STARLINK-3626","PERIAPSIS":"538.771","DECAY_DATE":null,"RCS_SIZE":"LARGE","COUNTRY_CODE":"US","RA_OF_ASC_NODE":"205.3812","ARG_OF_PERICENTER":"67.3422","EPHEMERIS_TYPE":"0"},{"DECAY_DATE":null,"RCS_SIZE":"LARGE","COUNTRY_CODE":"US","OBJECT_NAME":"STARLINK-3633","PERIAPSIS":"538.564","RA_OF_ASC_NODE":"205.9058","ARG_OF_PERICENTER":"55.6586","EPHEMERIS_TYPE":"0","TLE_LINE1":"1 51793U 22017AB  22278.50686748 -.00000578  00000-0 -18236-4 0  9998","GP_ID":"214243755","LAUNCH_DATE":"2022-02-25","REF_FRAME":"TEME","BSTAR":"-0.00001823600000","REV_AT_EPOCH":"3508","APOAPSIS":"540.944","CENTER_NAME":"EARTH","NORAD_CAT_ID":"51793","OBJECT_TYPE":"PAYLOAD","MEAN_MOTION_DOT":"-0.00000578","TIME_SYSTEM":"UTC","TLE_LINE2":"2 51793  53.2181 205.9058 0001720  55.6586 304.4568 15.08837132 35085","FILE":"3592692","SITE":"AFWTR","MEAN_MOTION":"15.08837132","INCLINATION":"53.2181","MEAN_ELEMENT_THEORY":"SGP4","MEAN_MOTION_DDOT":"0.0000000000000","SEMIMAJOR_AXIS":"6917.889","EPOCH":"2022-10-05T12:09:53.350272","ECCENTRICITY":"0.00017200","CLASSIFICATION_TYPE":"U","MEAN_ANOMALY":"304.4568","PERIOD":"95.438","ELEMENT_SET_NO":"999","OBJECT_ID":"2022-017AB"},{"RA_OF_ASC_NODE":"207.1967","ARG_OF_PERICENTER":"55.2848","EPHEMERIS_TYPE":"0","COUNTRY_CODE":"US","RCS_SIZE":"LARGE","DECAY_DATE":null,"PERIAPSIS":"538.701","OBJECT_NAME":"STARLINK-3573","APOAPSIS":"540.863","NORAD_CAT_ID":"51794","CENTER_NAME":"EARTH","TLE_LINE1":"1 51794U 22017AC  22278.21982894 -.00003172  00000-0 -18137-3 0  9990","GP_ID":"214244506","LAUNCH_DATE":"2022-02-25","REF_FRAME":"TEME","BSTAR":"-0.00018137000000","REV_AT_EPOCH":"3499","MEAN_ELEMENT_THEORY":"SGP4","INCLINATION":"53.2155","MEAN_MOTION":"15.08828003","MEAN_MOTION_DDOT":"0.0000000000000","TLE_LINE2":"2 51794  53.2155 207.1967 0001562  55.2848 304.8291 15.08828003 34994","FILE":"3592692","OBJECT_TYPE":"PAYLOAD","MEAN_MOTION_DOT":"-0.00003172","TIME_SYSTEM":"UTC","SITE":"AFWTR","ELEMENT_SET_NO":"999","PERIOD":"95.438","OBJECT_ID":"2022-017AC","SEMIMAJOR_AXIS":"6917.917","CLASSIFICATION_TYPE":"U","MEAN_ANOMALY":"304.8291","EPOCH":"2022-10-05T05:16:33.220416","ECCENTRICITY":"0.00015620"},{"MEAN_MOTION_DDOT":"0.0000000000000","MEAN_ELEMENT_THEORY":"SGP4","MEAN_MOTION":"15.08838204","INCLINATION":"53.2155","SITE":"AFWTR","TLE_LINE2":"2 51795  53.2155 207.1835 0001593  36.8137 323.2964 15.08838204 34995","FILE":"3592692","TIME_SYSTEM":"UTC","OBJECT_TYPE":"PAYLOAD","MEAN_MOTION_DOT":"-0.00001833","OBJECT_ID":"2022-017AD","ELEMENT_SET_NO":"999","PERIOD":"95.438","MEAN_ANOMALY":"323.2964","CLASSIFICATION_TYPE":"U","ECCENTRICITY":"0.00015930","EPOCH":"2022-10-05T05:21:51.264000","SEMIMAJOR_AXIS":"6917.886","EPHEMERIS_TYPE":"0","ARG_OF_PERICENTER":"36.8137","RA_OF_ASC_NODE":"207.1835","PERIAPSIS":"538.649","OBJECT_NAME":"STARLINK-3586","COUNTRY_CODE":"US","RCS_SIZE":"LARGE","DECAY_DATE":null,"NORAD_CAT_ID":"51795","CENTER_NAME":"EARTH","APOAPSIS":"540.853","REV_AT_EPOCH":"3499","BSTAR":"-0.00009708900000","LAUNCH_DATE":"2022-02-25","REF_FRAME":"TEME","TLE_LINE1":"1 51795U 22017AD  22278.22351000 -.00001833  00000-0 -97089-4 0  9997","GP_ID":"214243254"},{"RA_OF_ASC_NODE":"205.7469","EPHEMERIS_TYPE":"0","ARG_OF_PERICENTER":"46.9670","DECAY_DATE":null,"RCS_SIZE":"LARGE","COUNTRY_CODE":"US","OBJECT_NAME":"STARLINK-3630","PERIAPSIS":"538.614","APOAPSIS":"540.884","CENTER_NAME":"EARTH","NORAD_CAT_ID":"51796","GP_ID":"214243004","TLE_LINE1":"1 51796U 22017AE  22278.53998635  .00007595  00000-0  49481-3 0  9994","REF_FRAME":"TEME","LAUNCH_DATE":"2022-02-25","BSTAR":"0.00049481000000","REV_AT_EPOCH":"3503","MEAN_MOTION":"15.08838811","INCLINATION":"53.2154","MEAN_ELEMENT_THEORY":"SGP4","MEAN_MOTION_DDOT":"0.0000000000000","MEAN_MOTION_DOT":"0.00007595","OBJECT_TYPE":"PAYLOAD","TIME_SYSTEM":"UTC","TLE_LINE2":"2 51796  53.2154 205.7469 0001640  46.9670 313.1459 15.08838811 35036","FILE":"3592692","SITE":"AFWTR","PERIOD":"95.438","ELEMENT_SET_NO":"999","OBJECT_ID":"2022-017AE","SEMIMAJOR_AXIS":"6917.884","EPOCH":"2022-10-05T12:57:34.820640","ECCENTRICITY":"0.00016400","CLASSIFICATION_TYPE":"U","MEAN_ANOMALY":"313.1459"},{"ELEMENT_SET_NO":"999","PERIOD":"95.438","OBJECT_ID":"2022-017AF","SEMIMAJOR_AXIS":"6917.906","MEAN_ANOMALY":"310.1805","CLASSIFICATION_TYPE":"U","ECCENTRICITY":"0.00016870","EPOCH":"2022-10-05T19:50:55.540608","MEAN_ELEMENT_THEORY":"SGP4","INCLINATION":"53.2147","MEAN_MOTION":"15.08831731","MEAN_MOTION_DDOT":"0.0000000000000","FILE":"3593077","TLE_LINE2":"2 51797  53.2147 204.4716 0001687  49.9335 310.1805 15.08831731 35139","TIME_SYSTEM":"UTC","MEAN_MOTION_DOT":"0.00001867","OBJECT_TYPE":"PAYLOAD","SITE":"AFWTR","APOAPSIS":"540.938","NORAD_CAT_ID":"51797","CENTER_NAME":"EARTH","GP_ID":"214275953","TLE_LINE1":"1 51797U 22017AF  22278.82703172  .00001867  00000-0  13537-3 0  9996","REV_AT_EPOCH":"3513","BSTAR":"0.00013537000000","LAUNCH_DATE":"2022-02-25","REF_FRAME":"TEME","ARG_OF_PERICENTER":"49.9335","EPHEMERIS_TYPE":"0","RA_OF_ASC_NODE":"204.4716","COUNTRY_CODE":"US","DECAY_DATE":null,"RCS_SIZE":"LARGE","PERIAPSIS":"538.604","OBJECT_NAME":"STARLINK-3627"},{"GP_ID":"214244006","TLE_LINE1":"1 51798U 22017AG  22278.53630493  .00000939  00000-0  77059-4 0  9999","REV_AT_EPOCH":"3508","BSTAR":"0.00007705900000","LAUNCH_DATE":"2022-02-25","REF_FRAME":"TEME","APOAPSIS":"540.904","NORAD_CAT_ID":"51798","CENTER_NAME":"EARTH","COUNTRY_CODE":"US","RCS_SIZE":"LARGE","DECAY_DATE":null,"PERIAPSIS":"538.547","OBJECT_NAME":"STARLINK-3634","EPHEMERIS_TYPE":"0","ARG_OF_PERICENTER":"55.1531","RA_OF_ASC_NODE":"205.7545","SEMIMAJOR_AXIS":"6917.861","MEAN_ANOMALY":"304.9622","CLASSIFICATION_TYPE":"U","ECCENTRICITY":"0.00017030","EPOCH":"2022-10-05T12:52:16.745952","ELEMENT_SET_NO":"999","PERIOD":"95.437","OBJECT_ID":"2022-017AG","FILE":"3592692","TLE_LINE2":"2 51798  53.2151 205.7545 0001703  55.1531 304.9622 15.08846489 35083","TIME_SYSTEM":"UTC","OBJECT_TYPE":"PAYLOAD","MEAN_MOTION_DOT":"0.00000939","SITE":"AFWTR","MEAN_ELEMENT_THEORY":"SGP4","INCLINATION":"53.2151","MEAN_MOTION":"15.08846489","MEAN_MOTION_DDOT":"0.0000000000000"},{"OBJECT_ID":"2022-017AH","PERIOD":"95.437","ELEMENT_SET_NO":"999","EPOCH":"2022-10-05T05:11:14.964288","ECCENTRICITY":"0.00020410","CLASSIFICATION_TYPE":"U","MEAN_ANOMALY":"304.5404","SEMIMAJOR_AXIS":"6917.877","MEAN_MOTION_DDOT":"0.0000000000000","MEAN_MOTION":"15.08841265","INCLINATION":"53.2174","MEAN_ELEMENT_THEORY":"SGP4","SITE":"AFWTR","MEAN_MOTION_DOT":"-0.00002691","OBJECT_TYPE":"PAYLOAD","TIME_SYSTEM":"UTC","FILE":"3592692","TLE_LINE2":"2 51799  53.2174 207.2171 0002041  55.5781 304.5404 15.08841265 34998","CENTER_NAME":"EARTH","NORAD_CAT_ID":"51799","APOAPSIS":"541.153","REF_FRAME":"TEME","LAUNCH_DATE":"2022-02-25","REV_AT_EPOCH":"3499","BSTAR":"-0.00015100000000","GP_ID":"214242754","TLE_LINE1":"1 51799U 22017AH  22278.21614542 -.00002691  00000-0 -15100-3 0  9999","RA_OF_ASC_NODE":"207.2171","ARG_OF_PERICENTER":"55.5781","EPHEMERIS_TYPE":"0","OBJECT_NAME":"STARLINK-3637","PERIAPSIS":"538.330","RCS_SIZE":"LARGE","DECAY_DATE":null,"COUNTRY_CODE":"US"},{"TLE_LINE1":"1 51800U 22017AJ  22278.52990681  .00008271  00000-0  53721-3 0  9996","GP_ID":"214243505","LAUNCH_DATE":"2022-02-25","REF_FRAME":"TEME","BSTAR":"0.00053721000000","REV_AT_EPOCH":"3508","APOAPSIS":"540.732","CENTER_NAME":"EARTH","NORAD_CAT_ID":"51800","RCS_SIZE":"LARGE","DECAY_DATE":null,"COUNTRY_CODE":"US","OBJECT_NAME":"STARLINK-3600","PERIAPSIS":"538.787","RA_OF_ASC_NODE":"205.7912","EPHEMERIS_TYPE":"0","ARG_OF_PERICENTER":"44.5677","SEMIMAJOR_AXIS":"6917.895","EPOCH":"2022-10-05T12:43:03.948384","ECCENTRICITY":"0.00014060","CLASSIFICATION_TYPE":"U","MEAN_ANOMALY":"315.5428","PERIOD":"95.438","ELEMENT_SET_NO":"999","OBJECT_ID":"2022-017AJ","MEAN_MOTION_DOT":"0.00008271","OBJECT_TYPE":"PAYLOAD","TIME_SYSTEM":"UTC","FILE":"3592692","TLE_LINE2":"2 51800  53.2161 205.7912 0001406  44.5677 315.5428 15.08835334 35088","SITE":"AFWTR","MEAN_MOTION":"15.08835334","INCLINATION":"53.2161","MEAN_ELEMENT_THEORY":"SGP4","MEAN_MOTION_DDOT":"0.0000000000000"},{"APOAPSIS":"540.824","NORAD_CAT_ID":"51801","CENTER_NAME":"EARTH","TLE_LINE1":"1 51801U 22017AK  22278.21246933  .00003643  00000-0  24686-3 0  9993","GP_ID":"214243756","REF_FRAME":"TEME","LAUNCH_DATE":"2022-02-25","REV_AT_EPOCH":"3499","BSTAR":"0.00024686000000","RA_OF_ASC_NODE":"207.2098","EPHEMERIS_TYPE":"0","ARG_OF_PERICENTER":"57.1146","COUNTRY_CODE":"US","RCS_SIZE":"LARGE","DECAY_DATE":null,"PERIAPSIS":"538.682","OBJECT_NAME":"STARLINK-3592","PERIOD":"95.438","ELEMENT_SET_NO":"999","OBJECT_ID":"2022-017AK","SEMIMAJOR_AXIS":"6917.888","CLASSIFICATION_TYPE":"U","MEAN_ANOMALY":"302.9995","EPOCH":"2022-10-05T05:05:57.350112","ECCENTRICITY":"0.00015480","MEAN_ELEMENT_THEORY":"SGP4","INCLINATION":"53.2152","MEAN_MOTION":"15.08837609","MEAN_MOTION_DDOT":"0.0000000000000","TLE_LINE2":"2 51801  53.2152 207.2098 0001548  57.1146 302.9995 15.08837609 34994","FILE":"3592692","OBJECT_TYPE":"PAYLOAD","MEAN_MOTION_DOT":"0.00003643","TIME_SYSTEM":"UTC","SITE":"AFWTR"}];
